{"type": "FeatureCollection", "features": [ {"type": "Feature", "properties": {"norad_id": 66640, "name": "STARLINK-35921", "group": "last-30-days", "lat": 12.753044446154842, "lon": -29.184981031070418, "alt_km": 417.41770416293457, "timestamp": "2025-12-18T07:01:53.340788+00:00", "meta": {"OBJECT_NAME": "STARLINK-35921", "OBJECT_ID": "2025-271Z", "EPOCH": "2025-12-17T02:27:41.322240", "MEAN_MOTION": 15.49331878, "ECCENTRICITY": 0.0001586, "INCLINATION": 53.1597, "RA_OF_ASC_NODE": 166.2791, "ARG_OF_PERICENTER": 66.7649, "MEAN_ANOMALY": 293.3527, "EPHEMERIS_TYPE": 0, "CLASSIFICATION_TYPE": "U", "NORAD_CAT_ID": 66640, "ELEMENT_SET_NO": 999, "REV_AT_EPOCH": 488, "BSTAR": 0.001103034, "MEAN_MOTION_DOT": 0.00061432, "MEAN_MOTION_DDOT": 0}, "tle": {"line1": "1 66640U 25271Z   25351.10256160  .00061432  00000+0  11030-2 0  9998", "line2": "2 66640  53.1597 166.2791 0001586  66.7649 293.3527 15.49331878  4884"}}, "geometry": {"type": "Point", "coordinates": [-29.184981031070418, 12.753044446154842]}}, {"type": "Feature", "properties": {"norad_id": 66641, "name": "STARLINK-35923", "group": "last-30-days", "lat": 6.93531797307693, "lon": -24.662803831266405, "alt_km": 418.50821940765036, "timestamp": "2025-12-18T07:01:53.340798+00:00", "meta": {"OBJECT_NAME": "STARLINK-35923", "OBJECT_ID": "2025-271AA", "EPOCH": "2025-12-17T21:00:24.639552", "MEAN_MOTION": 15.49342036, "ECCENTRICITY": 0.0001304, "INCLINATION": 53.1594, "RA_OF_ASC_NODE": 162.5676, "ARG_OF_PERICENTER": 79.6341, "MEAN_ANOMALY": 280.4815, "EPHEMERIS_TYPE": 0, "CLASSIFICATION_TYPE": "U", "NORAD_CAT_ID": 66641, "ELEMENT_SET_NO": 999, "REV_AT_EPOCH": 500, "BSTAR": 0.00075738673, "MEAN_MOTION_DOT": 0.0004195, "MEAN_MOTION_DDOT": 0}, "tle": {"line1": "1 66641U 25271AA  25351.87528518  .00041950  00000+0  75739-3 0  9992", "line2": "2 66641  53.1594 162.5676 0001304  79.6341 280.4815 15.49342036  5003"}}, "geometry": {"type": "Point", "coordinates": [-24.662803831266405, 6.93531797307693]}}, {"type": "Feature", "properties": {"norad_id": 66642, "name": "STARLINK-35926", "group": "last-30-days", "lat": 8.49253769744923, "lon": -25.853344485132016, "alt_km": 418.2879448795202, "timestamp": "2025-12-18T07:01:53.340808+00:00", "meta": {"OBJECT_NAME": "STARLINK-35926", "OBJECT_ID": "2025-271AB", "EPOCH": "2025-12-17T21:00:54.393120", "MEAN_MOTION": 15.49323144, "ECCENTRICITY": 8.688e-05, "INCLINATION": 53.1593, "RA_OF_ASC_NODE": 162.5706, "ARG_OF_PERICENTER": 80.6626, "MEAN_ANOMALY": 279.4481, "EPHEMERIS_TYPE": 0, "CLASSIFICATION_TYPE": "U", "NORAD_CAT_ID": 66642, "ELEMENT_SET_NO": 999, "REV_AT_EPOCH": 496, "BSTAR": 0.00089082651, "MEAN_MOTION_DOT": 0.00049434, "MEAN_MOTION_DDOT": 0}, "tle": {"line1": "1 66642U 25271AB  25351.87562955  .00049434  00000+0  89083-3 0  9998", "line2": "2 66642  53.1593 162.5706 0000868  80.6626 279.4481 15.49323144  4969"}}, "geometry": {"type": "Point", "coordinates": [-25.853344485132016, 8.49253769744923]}}, {"type": "Feature", "properties": {"norad_id": 66643, "name": "STARLINK-35918", "group": "last-30-days", "lat": 11.596849807672921, "lon": -28.26695812836936, "alt_km": 417.5378858616359, "timestamp": "2025-12-18T07:01:53.340817+00:00", "meta": {"OBJECT_NAME": "STARLINK-35918", "OBJECT_ID": "2025-271AC", "EPOCH": "2025-12-17T19:29:01.877856", "MEAN_MOTION": 15.49306868, "ECCENTRICITY": 0.00013675, "INCLINATION": 53.1597, "RA_OF_ASC_NODE": 162.8848, "ARG_OF_PERICENTER": 89.192, "MEAN_ANOMALY": 270.9246, "EPHEMERIS_TYPE": 0, "CLASSIFICATION_TYPE": "U", "NORAD_CAT_ID": 66643, "ELEMENT_SET_NO": 999, "REV_AT_EPOCH": 499, "BSTAR": 0.0015515417, "MEAN_MOTION_DOT": 0.000868, "MEAN_MOTION_DDOT": 0}, "tle": {"line1": "1 66643U 25271AC  25351.81182729  .00086800  00000+0  15515-2 0  9996", "line2": "2 66643  53.1597 162.8848 0001367  89.1920 270.9246 15.49306868  4992"}}, "geometry": {"type": "Point", "coordinates": [-28.26695812836936, 11.596849807672921]}}, {"type": "Feature", "properties": {"norad_id": 66644, "name": "STARLINK-35938", "group": "last-30-days", "lat": 9.976399203764903, "lon": -26.99865754301475, "alt_km": 417.9728275755815, "timestamp": "2025-12-18T07:01:53.340827+00:00", "meta": {"OBJECT_NAME": "STARLINK-35938", "OBJECT_ID": "2025-271AD", "EPOCH": "2025-12-17T19:28:30.485280", "MEAN_MOTION": 15.49335898, "ECCENTRICITY": 7.708e-05, "INCLINATION": 53.1598, "RA_OF_ASC_NODE": 162.8827, "ARG_OF_PERICENTER": 79.426, "MEAN_ANOMALY": 280.6836, "EPHEMERIS_TYPE": 0, "CLASSIFICATION_TYPE": "U", "NORAD_CAT_ID": 66644, "ELEMENT_SET_NO": 999, "REV_AT_EPOCH": 499, "BSTAR": 0.0011274472, "MEAN_MOTION_DOT": 0.00062821, "MEAN_MOTION_DDOT": 0}, "tle": {"line1": "1 66644U 25271AD  25351.81146395  .00062821  00000+0  11274-2 0  9991", "line2": "2 66644  53.1598 162.8827 0000770  79.4260 280.6836 15.49335898  4995"}}, "geometry": {"type": "Point", "coordinates": [-26.99865754301475, 9.976399203764903]}}, {"type": "Feature", "properties": {"norad_id": 66645, "name": "SHENZHOU-22", "group": "last-30-days", "lat": 22.023347779867123, "lon": 10.248053797653714, "alt_km": 381.93561658186263, "timestamp": "2025-12-18T07:01:53.340838+00:00", "meta": {"OBJECT_NAME": "SHENZHOU-22", "OBJECT_ID": "2025-272A", "EPOCH": "2025-12-17T17:03:03.263616", "MEAN_MOTION": 15.59389869, "ECCENTRICITY": 0.00077031, "INCLINATION": 41.4683, "RA_OF_ASC_NODE": 346.526, "ARG_OF_PERICENTER": 74.1787, "MEAN_ANOMALY": 285.99, "EPHEMERIS_TYPE": 0, "CLASSIFICATION_TYPE": "U", "NORAD_CAT_ID": 66645, "ELEMENT_SET_NO": 999, "REV_AT_EPOCH": 26357, "BSTAR": 0.00025361987, "MEAN_MOTION_DOT": 0.0002035, "MEAN_MOTION_DDOT": 0}, "tle": {"line1": "1 66645U 25272A   25351.71045444  .00020350  00000+0  25362-3 0  9990", "line2": "2 66645  41.4683 346.5260 0007703  74.1787 285.9900 15.59389869263571"}}, "geometry": {"type": "Point", "coordinates": [10.248053797653714, 22.023347779867123]}}, {"type": "Feature", "properties": {"norad_id": 66647, "name": "COSMOS 2597 (RODNIK-S 22)", "group": "last-30-days", "lat": 81.27141984682241, "lon": -17.895167726053486, "alt_km": 1496.9020319967376, "timestamp": "2025-12-18T07:01:53.340848+00:00", "meta": {"OBJECT_NAME": "COSMOS 2597 (RODNIK-S 22)", "OBJECT_ID": "2025-273A", "EPOCH": "2025-12-17T20:54:19.287648", "MEAN_MOTION": 12.41952032, "ECCENTRICITY": 0.00076751, "INCLINATION": 82.4987, "RA_OF_ASC_NODE": 283.2629, "ARG_OF_PERICENTER": 274.5556, "MEAN_ANOMALY": 85.4646, "EPHEMERIS_TYPE": 0, "CLASSIFICATION_TYPE": "U", "NORAD_CAT_ID": 66647, "ELEMENT_SET_NO": 999, "REV_AT_EPOCH": 277, "BSTAR": 6.4700535e-05, "MEAN_MOTION_DOT": 1.9e-07, "MEAN_MOTION_DDOT": 0}, "tle": {"line1": "1 66647U 25273A   25351.87105657  .00000019  00000+0  64701-4 0  9994", "line2": "2 66647  82.4987 283.2629 0007675 274.5556  85.4646 12.41952032  2778"}}, "geometry": {"type": "Point", "coordinates": [-17.895167726053486, 81.27141984682241]}}, {"type": "Feature", "properties": {"norad_id": 66648, "name": "COSMOS 2598 (RODNIK-S 23)", "group": "last-30-days", "lat": 32.85868048013785, "lon": 98.11594020633834, "alt_km": 1489.3093464525873, "timestamp": "2025-12-18T07:01:53.340858+00:00", "meta": {"OBJECT_NAME": "COSMOS 2598 (RODNIK-S 23)", "OBJECT_ID": "2025-273B", "EPOCH": "2025-12-17T20:35:13.350624", "MEAN_MOTION": 12.43233439, "ECCENTRICITY": 0.000805, "INCLINATION": 82.5025, "RA_OF_ASC_NODE": 283.2656, "ARG_OF_PERICENTER": 224.6326, "MEAN_ANOMALY": 135.4107, "EPHEMERIS_TYPE": 0, "CLASSIFICATION_TYPE": "U", "NORAD_CAT_ID": 66648, "ELEMENT_SET_NO": 999, "REV_AT_EPOCH": 277, "BSTAR": -7.95043e-07, "MEAN_MOTION_DOT": 1e-07, "MEAN_MOTION_DDOT": 0}, "tle": {"line1": "1 66648U 25273B   25351.85779341  .00000010  00000+0 -79504-6 0  9991", "line2": "2 66648  82.5025 283.2656 0008050 224.6326 135.4107 12.43233439  2775"}}, "geometry": {"type": "Point", "coordinates": [98.11594020633834, 32.85868048013785]}}, {"type": "Feature", "properties": {"norad_id": 66649, "name": "COSMOS 2599 (RODNIK-S 24)", "group": "last-30-days", "lat": 50.2661466387142, "lon": -67.86149456119547, "alt_km": 1501.1124083813665, "timestamp": "2025-12-18T07:01:53.340871+00:00", "meta": {"OBJECT_NAME": "COSMOS 2599 (RODNIK-S 24)", "OBJECT_ID": "2025-273C", "EPOCH": "2025-12-17T21:05:06.210240", "MEAN_MOTION": 12.41150953, "ECCENTRICITY": 0.00062755, "INCLINATION": 82.5047, "RA_OF_ASC_NODE": 283.2829, "ARG_OF_PERICENTER": 266.0189, "MEAN_ANOMALY": 94.0172, "EPHEMERIS_TYPE": 0, "CLASSIFICATION_TYPE": "U", "NORAD_CAT_ID": 66649, "ELEMENT_SET_NO": 999, "REV_AT_EPOCH": 277, "BSTAR": -0.00010438197, "MEAN_MOTION_DOT": -4e-08, "MEAN_MOTION_DDOT": 0}, "tle": {"line1": "1 66649U 25273C   25351.87854410 -.00000004  00000+0 -10438-3 0  9997", "line2": "2 66649  82.5047 283.2829 0006275 266.0189  94.0172 12.41150953  2775"}}, "geometry": {"type": "Point", "coordinates": [-67.86149456119547, 50.2661466387142]}}, {"type": "Feature", "properties": {"norad_id": 66650, "name": "BEE-1000", "group": "last-30-days", "lat": -34.181517394925216, "lon": 94.07902777027448, "alt_km": 591.8587027833246, "timestamp": "2025-12-18T07:01:53.340884+00:00", "meta": {"OBJECT_NAME": "BEE-1000", "OBJECT_ID": "2025-274A", "EPOCH": "2025-12-17T20:24:46.713024", "MEAN_MOTION": 14.91678736, "ECCENTRICITY": 0.00106069, "INCLINATION": 97.7398, "RA_OF_ASC_NODE": 278.9444, "ARG_OF_PERICENTER": 232.4311, "MEAN_ANOMALY": 127.5945, "EPHEMERIS_TYPE": 0, "CLASSIFICATION_TYPE": "U", "NORAD_CAT_ID": 66650, "ELEMENT_SET_NO": 999, "REV_AT_EPOCH": 316, "BSTAR": 0.00011803793, "MEAN_MOTION_DOT": 1.132e-05, "MEAN_MOTION_DDOT": 0}, "tle": {"line1": "1 66650U 25274A   25351.85054066  .00001132  00000+0  11804-3 0  9996", "line2": "2 66650  97.7398 278.9444 0010606 232.4311 127.5945 14.91678736  3160"}}, "geometry": {"type": "Point", "coordinates": [94.07902777027448, -34.181517394925216]}}]}